[{"OBJECT_ID":"1968-050D","OBJECT_NAME":"OPS 9344 (IDSCS 23)","NORAD_CAT_ID":"3287","OBJECT_TYPE":"PAYLOAD","PERIOD":"1337.788","INCLINATION":"1.0934","APOGEE":"33947.491","PERIGEE":"33731.875","ECCENTRICITY":"0.0026806","MEAN_MOTION":"1.07640323","TLE_LINE1":"1 03287U 68050D   16237.10958697 -.00000107  00000-0  00000+0 0  9991","TLE_LINE2":"2 03287   1.0934   9.7285 0026806 117.6171 189.4908  1.07640323189256","LAUNCH_DATE":"1968-06-13","LAUNCH_SITE":"AIR FORCE EASTERN TEST RANGE","OWNER":"UNITED STATES OF AMERICA","ORBIT_TYPE":"Unclassified","OPERATIONAL_STATUS":"Nonoperational","satInfo":{"lng":-96.68049625645884,"lat":-1.1066052114433413,"elevation":-10.040886583200596,"azimuth":51.68049625645883,"range":40921.131659727565,"height":33923.73831210216,"velocity":3.14164578731156},"x":-287,"y":31,"dx":-0.36547598151742483,"dy":-3.1203149776691372},{"OBJECT_ID":"1968-050E","OBJECT_NAME":"OPS 9345 (IDSCS 24)","NORAD_CAT_ID":"3288","OBJECT_TYPE":"PAYLOAD","PERIOD":"1339.813","INCLINATION":"1.0931","APOGEE":"34028.647","PERIGEE":"33731.870","ECCENTRICITY":"0.0036859","MEAN_MOTION":"1.07477632","TLE_LINE1":"1  3288U 68050E   16238.43278596 -.00000072 +00000-0 +00000-0 0  9994","TLE_LINE2":"2  3288 001.0931 004.0549 0036859 118.8344 164.3357 01.07477632100736","LAUNCH_DATE":"1968-06-13","LAUNCH_SITE":"AIR FORCE EASTERN TEST RANGE","OWNER":"UNITED STATES OF AMERICA","ORBIT_TYPE":"Unclassified","OPERATIONAL_STATUS":"Nonoperational","satInfo":{"lng":129.9004780645082,"lat":0.07026961221788293,"elevation":-8.935468463032702,"azimuth":185.0995219354918,"range":40612.2318228674,"height":33741.25103279019,"velocity":3.157515837876037},"x":216,"y":172,"dx":-2.0254075822962414,"dy":2.422319217612515},{"OBJECT_ID":"1968-050F","OBJECT_NAME":"OPS 9346 (IDSCS 25)","NORAD_CAT_ID":"3289","OBJECT_TYPE":"PAYLOAD","PERIOD":"1342.186","INCLINATION":"1.0719","APOGEE":"34121.693","PERIGEE":"33733.846","ECCENTRICITY":"0.0048113","MEAN_MOTION":"1.07287654","TLE_LINE1":"1 03289U 68050F   16238.14953707 -.00000109  00000-0  00000+0 0  9997","TLE_LINE2":"2 03289   1.0719   0.8622 0048113 119.6066 210.9567  1.07287654100805","LAUNCH_DATE":"1968-06-13","LAUNCH_SITE":"AIR FORCE EASTERN TEST RANGE","OWNER":"UNITED STATES OF AMERICA","ORBIT_TYPE":"Unclassified","OPERATIONAL_STATUS":"Nonoperational","satInfo":{"lng":-146.1128140933534,"lat":-0.9695584187359152,"elevation":-9.898279828233303,"azimuth":101.11281409335336,"range":40948.83920423971,"height":33966.92797385321,"velocity":3.1417273304901343},"x":-162,"y":225,"dx":-2.6080641103173057,"dy":-1.7516998075079717},{"OBJECT_ID":"1968-050G","OBJECT_NAME":"OPS 9347 (IDSCS 26)","NORAD_CAT_ID":"3290","OBJECT_TYPE":"PAYLOAD","PERIOD":"1345.357","INCLINATION":"1.0961","APOGEE":"34249.760","PERIGEE":"33732.694","ECCENTRICITY":"0.0064042","MEAN_MOTION":"1.07034781","TLE_LINE1":"1 03290U 68050G   16238.42333675 -.00000070  00000-0  00000+0 0  9993","TLE_LINE2":"2 03290   1.0961 352.8848 0064042 124.9404 181.6734  1.07034781100564","LAUNCH_DATE":"1968-06-13","LAUNCH_SITE":"AIR FORCE EASTERN TEST RANGE","OWNER":"UNITED STATES OF AMERICA","ORBIT_TYPE":"Unclassified","OPERATIONAL_STATUS":"Nonoperational","satInfo":{"lng":111.17408988282423,"lat":0.12963423288245024,"elevation":-8.878001025294198,"azimuth":203.8259101171758,"range":40603.95783214892,"height":33739.45529273725,"velocity":3.1619580512563337},"x":263,"y":97,"dx":-1.1421084828771406,"dy":2.9484855318018486},{"OBJECT_ID":"1968-050H","OBJECT_NAME":"OPS 9348 (IDSCS 27)","NORAD_CAT_ID":"3291","OBJECT_TYPE":"PAYLOAD","PERIOD":"1348.720","INCLINATION":"1.0998","APOGEE":"34382.623","PERIGEE":"33734.351","ECCENTRICITY":"0.0080159","MEAN_MOTION":"1.0676784","TLE_LINE1":"1 03291U 68050H   16238.73915709 -.00000145  00000-0  00000+0 0  9995","TLE_LINE2":"2 03291   1.0998 347.5106 0080159 128.2537 220.9759  1.06767840187774","LAUNCH_DATE":"1968-06-13","LAUNCH_SITE":"AIR FORCE EASTERN TEST RANGE","OWNER":"UNITED STATES OF AMERICA","ORBIT_TYPE":"Unclassified","OPERATIONAL_STATUS":"Nonoperational","satInfo":{"lng":-5.168407221724226,"lat":0.4251606125505768,"elevation":-8.495227078306648,"azimuth":320.16840722172424,"range":40998.22787577944,"height":34171.380620018936,"velocity":3.130952860830678},"x":-28,"y":-272,"dx":3.11822310107771,"dy":-0.28204699723470844},{"OBJECT_ID":"1968-050J","OBJECT_NAME":"TITAN 3C TRANSTAGE R/B","NORAD_CAT_ID":"3292","OBJECT_TYPE":"ROCKET BODY","PERIOD":"1363.687","INCLINATION":"1.0834","APOGEE":"35016.659","PERIGEE":"33697.522","ECCENTRICITY":"0.0161916","MEAN_MOTION":"1.05596023","TLE_LINE1":"1 03292U 68050J   16238.29399822 -.00000216  00000-0  00000+0 0  9998","TLE_LINE2":"2 03292   1.0834  22.9728 0161916 322.9853 342.0744  1.05596023 91285","LAUNCH_DATE":"1968-06-13","LAUNCH_SITE":"AIR FORCE EASTERN TEST RANGE","OWNER":"UNITED STATES OF AMERICA","ORBIT_TYPE":"Unclassified","OPERATIONAL_STATUS":"N/A, derelict rocket body","satInfo":{"lng":-17.194866195009595,"lat":0.2948521561431274,"elevation":-8.723721855612345,"azimuth":332.1948661950096,"range":40555.46762398139,"height":33708.68181163386,"velocity":3.1783731652356737},"x":-86,"y":-257,"dx":3.036315313403235,"dy":-0.9395984754581339},{"OBJECT_ID":"1983-026C","OBJECT_NAME":"IUS R/B(2)","NORAD_CAT_ID":"13970","OBJECT_TYPE":"ROCKET BODY","PERIOD":"1089.613","INCLINATION":"1.6641","APOGEE":"35236.717","PERIGEE":"22158.744","ECCENTRICITY":"0.1864241","MEAN_MOTION":"1.32156997","TLE_LINE1":"1 13970U 83026C   16239.42938936 -.00000151  00000-0  00000+0 0  9991","TLE_LINE2":"2 13970   1.6641 344.7999 1864241 156.0560 103.9895  1.32156997161202","LAUNCH_DATE":"1983-04-04","LAUNCH_SITE":"AIR FORCE EASTERN TEST RANGE","OWNER":"UNITED STATES OF AMERICA","ORBIT_TYPE":"Unclassified","OPERATIONAL_STATUS":"N/A, derelict rocket body","satInfo":{"lng":-32.43875850300927,"lat":0.671738252055678,"elevation":-8.06542820721107,"azimuth":347.43875850300924,"range":41850.57397454897,"height":35061.31688549008,"velocity":2.8060952597095827},"x":-161,"y":-237,"dx":2.3682469297064617,"dy":-1.505183406266661},{"OBJECT_ID":"1995-073A","OBJECT_NAME":"ECHOSTAR 1","NORAD_CAT_ID":"23754","OBJECT_TYPE":"PAYLOAD","PERIOD":"1436.120","INCLINATION":"0.1914","APOGEE":"35800.679","PERIGEE":"35773.457","ECCENTRICITY":"0.0003228","MEAN_MOTION":"1.00270103","TLE_LINE1":"1 23754U 95073A   16238.99147818 -.00000268  00000-0  00000+0 0  9998","TLE_LINE2":"2 23754   0.1914  92.1924 0003228  95.8870  66.2512  1.00270103 75522","LAUNCH_DATE":"1995-12-28","LAUNCH_SITE":"Xichang Space Center, China","OWNER":"UNITED STATES OF AMERICA","ORBIT_TYPE":"Geosynchronous","OPERATIONAL_STATUS":"Operational","satInfo":{"lng":-95.770225193359,"lat":-1.5824541545144102,"elevation":-10.114227956183374,"azimuth":50.77022519335897,"range":42825.63384550378,"height":35798.038369706555,"velocity":3.0743221166854777},"x":-303,"y":28,"dx":-0.3090901182181405,"dy":-3.0587448039941765},{"OBJECT_ID":"1996-021A","OBJECT_NAME":"ASTRA 1F","NORAD_CAT_ID":"23842","OBJECT_TYPE":"PAYLOAD","PERIOD":"1436.129","INCLINATION":"0.1111","APOGEE":"35803.378","PERIGEE":"35771.088","ECCENTRICITY":"0.0003829","MEAN_MOTION":"1.00269515","TLE_LINE1":"1 23842U 96021A   16239.08104855  .00000111  00000-0  00000+0 0  9991","TLE_LINE2":"2 23842   0.1111 291.4336 0003829 228.8637 247.9319  1.00269515 74411","LAUNCH_DATE":"1996-04-08","LAUNCH_SITE":"TYURATAM MISSILE AND SPACE COMPLEX","OWNER":"SOCIÉTÉ EUROPÉENNE DES SATELLITES","ORBIT_TYPE":"Geosynchronous","OPERATIONAL_STATUS":"Operational","satInfo":{"lng":99.63011753955122,"lat":-1.203504518498883,"elevation":-9.751762753275125,"azimuth":215.36988246044876,"range":42752.43484575452,"height":35765.84895362563,"velocity":3.0758022964404037},"x":295,"y":47,"dx":-0.5145417778086041,"dy":3.032458825058903},{"OBJECT_ID":"1996-054A","OBJECT_NAME":"AMC-1 (GE-1)","NORAD_CAT_ID":"24315","OBJECT_TYPE":"PAYLOAD","PERIOD":"1436.073","INCLINATION":"0.9541","APOGEE":"35797.333","PERIGEE":"35774.952","ECCENTRICITY":"0.0002654","MEAN_MOTION":"1.00273403","TLE_LINE1":"1 24315U 96054A   16239.42792717  .00000030  00000-0  00000+0 0  9991","TLE_LINE2":"2 24315   0.9541  86.5770 0002654  79.0417 194.3824  1.00273403 73117","LAUNCH_DATE":"1996-09-08","LAUNCH_SITE":"AIR FORCE EASTERN TEST RANGE","OWNER":"SOCIÉTÉ EUROPÉENNE DES SATELLITES","ORBIT_TYPE":"Geosynchronous","OPERATIONAL_STATUS":"Operational","satInfo":{"lng":-110.60174333552551,"lat":-1.6246718133761775,"elevation":-10.16003155750682,"azimuth":65.6017433355255,"range":42806.67999211026,"height":35774.21526378143,"velocity":3.075126427736323},"x":-285,"y":100,"dx":-1.0820451348907099,"dy":-2.8784684942902716},{"OBJECT_ID":"1997-026A","OBJECT_NAME":"GALAXY 25 (TELSTAR 5)","NORAD_CAT_ID":"24812","OBJECT_TYPE":"PAYLOAD","PERIOD":"1436.071","INCLINATION":"0.0213","APOGEE":"35798.948","PERIGEE":"35773.270","ECCENTRICITY":"0.0003045","MEAN_MOTION":"1.00273525","TLE_LINE1":"1 24812U 97026A   16237.33351853 -.00000187  00000-0  00000+0 0  9997","TLE_LINE2":"2 24812   0.0213  89.3493 0003045  60.9767 209.6875  1.00273525 70423","LAUNCH_DATE":"1997-05-24","LAUNCH_SITE":"TYURATAM MISSILE AND SPACE COMPLEX","OWNER":"UNITED STATES OF AMERICA","ORBIT_TYPE":"Geosynchronous","OPERATIONAL_STATUS":"Operational","satInfo":{"lng":-103.04405824095078,"lat":-1.3289088296769824,"elevation":-9.867529855378969,"azimuth":58.04405824095075,"range":42797.62988603984,"height":35797.702858198936,"velocity":3.0740891481156045},"x":-297,"y":64,"dx":-0.6938226606637954,"dy":-2.9947678050412416}]